OBJECT_NAME,OBJECT_ID,EPOCH,MEAN_MOTION,ECCENTRICITY,INCLINATION,RA_OF_ASC_NODE,ARG_OF_PERICENTER,MEAN_ANOMALY,EPHEMERIS_TYPE,CLASSIFICATION_TYPE,NORAD_CAT_ID,ELEMENT_SET_NO,REV_AT_EPOCH,BSTAR,MEAN_MOTION_DOT,MEAN_MOTION_DDOT
PERSEUS-M1,2014-033AF,2026-05-11T20:10:01.742880,14.95505470,.0012866,97.9625,75.3841,61.8299,298.4219,0,U,40039,999,64520,.10833E-3,.1141E-4,0
POLYITAN-1,2014-033AJ,2026-05-11T19:34:36.703776,15.31992909,.000536,98.0977,154.6719,271.6607,88.4019,0,U,40042,999,64802,.37047E-3,.11364E-3,0
TIGRISAT,2014-033AK,2026-05-11T15:56:36.445344,14.85003353,.0049174,97.7789,282.5267,192.8878,167.1083,0,U,40043,999,64020,.17477E-3,.1467E-4,0
AEROCUBE 6A,2014-033AM,2026-05-11T09:59:00.103488,14.97694773,.00402043,97.7212,298.7743,136.9009,223.5373,0,U,40045,999,64111,.41286449E-3,.4858E-4,0
AEROCUBE 6B,2014-033AN,2026-05-11T17:17:46.617216,14.99120134,.0037829,97.7174,298.7932,129.3695,231.0889,0,U,40046,999,64129,.32606E-3,.3961E-4,0
CANX-4,2014-034C,2026-05-11T04:49:09.269472,14.81195001,.00138187,98.3173,5.1488,126.4174,233.8314,0,U,40055,999,63905,.77319793E-4,.545E-5,0
CANX-5,2014-034D,2026-05-11T04:47:30.761376,14.81211971,.00138114,98.3174,5.1889,126.6488,233.5995,0,U,40056,999,62986,.76210815E-4,.537E-5,0
UKUBE-1,2014-037F,2026-05-11T20:46:54.561792,15.12964107,.0000483,98.4248,131.3414,53.3955,306.7318,0,U,40074,999,64306,.29406E-3,.5108E-4,0
BRITE-PL2 (HEWELIUSZ),2014-049B,2026-05-11T06:45:20.937312,14.94454349,.00129842,97.9056,243.0096,228.2405,131.7706,0,U,40119,999,63593,.89656935E-4,.908E-5,0
AEROCUBE 5C,2015-058B,2026-05-11T19:48:48.962880,14.91243730,.0129771,64.7691,15.6911,77.5699,283.9899,0,U,40965,999,36023,.18411E-3,.1977E-4,0
AEROCUBE 7,2015-058C,2026-05-11T20:35:28.861152,14.95438837,.0119545,64.7640,358.5822,76.2497,285.1890,0,U,40966,999,36052,.23343E-3,.2804E-4,0
FOX-1A (AO-85),2015-058D,2026-05-11T20:40:12.463968,14.90751679,.0128941,64.7767,31.8535,70.8323,290.6693,0,U,40967,999,10815,.19423E-3,.2063E-4,0
SINOD-D 1,2015-058E,2026-05-11T20:09:57.967200,14.95616856,.0117414,64.7770,12.7113,67.6414,293.7094,0,U,40968,999,11122,.24109E-3,.2902E-4,0
SNAP-3 ALICE,2015-058G,2026-05-11T13:01:17.624640,15.53252455,.00327018,64.7531,229.8456,31.6012,328.7085,0,U,40970,999,11118,.82454058E-3,.53534E-3,0
LMRST-SAT,2015-058H,2026-05-11T19:22:38.822592,14.90376766,.0130713,64.7774,28.2908,72.8815,288.6564,0,U,40971,999,10813,.19106E-3,.2014E-4,0
SNAP-3 EDDIE,2015-058J,2026-05-11T08:49:07.672224,15.54381568,.00331558,64.7449,221.4318,35.3408,324.9923,0,U,40972,999,11329,.80795108E-3,.5472E-3,0
PROPCUBE 3,2015-058K,2026-05-11T19:09:00.052128,14.94005166,.0122917,64.7703,6.2078,74.4018,287.0622,0,U,40973,999,10936,.21321E-3,.2464E-4,0
BISONSAT,2015-058L,2026-05-11T19:29:43.101888,15.15447122,.0078694,64.7596,291.1714,63.0474,297.8660,0,U,40974,999,11010,.39334E-3,.7877E-4,0
SNAP-3 JIMI,2015-058M,2026-05-11T20:06:42.018048,15.01920591,.0104882,64.7662,334.7456,70.4344,290.8061,0,U,40975,999,10876,.27448E-3,.3865E-4,0
PROPCUBE 1 (FLORA),2015-058N,2026-05-11T20:43:00.045408,14.89011162,.0129532,64.7757,47.7940,75.1378,286.4038,0,U,40976,999,11085,.18667E-3,.1884E-4,0
SINOD-D 3,2015-058P,2026-05-11T19:45:34.092000,14.93732836,.0118023,64.7741,29.3466,72.6604,288.7379,0,U,40977,999,10932,.23813E-3,.272E-4,0
HORYU-4,2016-012D,2026-05-11T15:58:20.936640,15.77715483,.0005642,30.9894,342.9931,13.7022,346.3788,0,U,41340,999,56501,.69385E-3,.12335E-2,0
RAVAN,2016-067B,2026-05-11T13:42:26.064864,15.51334138,.0007217,97.9941,17.0127,123.1774,237.0169,0,U,41849,999,52201,.47164E-3,.27687E-3,0
CELTEE 1,2016-067C,2026-05-11T20:32:59.473824,15.19317518,.0001863,98.0724,355.9474,60.8148,299.3271,0,U,41850,999,52036,.14827E-3,.3053E-4,0
OPTICUBE 04,2016-067D,2026-05-11T19:42:31.427712,15.09501826,.0014408,98.0739,342.2046,238.1687,121.8139,0,U,41851,999,51968,.77184E-4,.1168E-4,0
AEROCUBE 8D,2016-067E,2026-05-11T04:37:41.921184,15.23875407,.0001891,98.0737,358.5566,257.1576,102.9448,0,U,41852,999,52043,.18990658E-3,.4501E-4,0
AEROCUBE 8C,2016-067F,2026-05-11T21:07:33.348576,15.24119216,.0005421,98.0607,356.5714,170.6097,189.5241,0,U,41853,999,52053,.18636E-3,.4449E-4,0
CORVUS BC2,2017-042X,2026-05-11T17:19:13.131264,15.06060833,.001193,97.4039,294.5038,232.5956,127.4186,0,U,42846,999,48157,.16328E-3,.2327E-4,0
CORVUS BC1,2017-042Y,2026-05-11T17:17:25.334304,15.06232832,.0011229,97.4072,295.2927,206.2576,153.8084,0,U,42847,999,48160,.15896E-3,.2274E-4,0
MAKERSAT 0,2017-073D,2026-05-11T15:39:01.255104,15.30531034,.0111941,97.4679,13.9210,43.8144,317.1910,0,U,43016,999,46087,.44657E-3,.15937E-3,0
